JY1SAT (JO-97)          
1 43803U 18099AX  26068.68634132  .00017774  00000+0  60804-3 0  9996
2 43803  97.4249 131.3625 0004723 256.6795 103.3919 15.30302628398390
STARLINK-35986          
1 66853U 25281F   26068.13982282  .00025995  00000+0  95033-3 0  9995
2 66853  43.0001 346.3912 0001048 278.0103  82.0629 15.27597385 16107
